NORAD_CAT_ID,OBJECT_NAME,OBJECT_TYPE,EPOCH,MEAN_MOTION,ECCENTRICITY,INCLINATION,RA_OF_ASC_NODE,ARG_OF_PERICENTER,MEAN_ANOMALY,BSTAR,MEAN_MOTION_DOT,MEAN_MOTION_DDOT,TLE_LINE0,TLE_LINE1,TLE_LINE2,SEMIMAJOR_AXIS,PERIOD,APOGEE,PERIGEE,DECAYED
52332.0,STARLINK-3831,PAYLOAD,2024-02-28 08:39:06,15.08839263,0.0001343,53.2161,292.601,90.9495,269.1651,0.00014324,1.992e-05,0.0,0 STARLINK-3831,1 52332U 22045B   24059.36049086  .00001992  00000-0  14324-3 0  9992,2 52332  53.2161 292.6010 0001343  90.9495 269.1651 15.08839263103876,6917.883,95.438,540.677,538.819,0.0
52332.0,STARLINK-3831,PAYLOAD,2024-02-28 21:22:11,15.08841561,0.0001301,53.2156,290.2229,88.6024,271.5117,0.00026062,3.862e-05,0.0,0 STARLINK-3831,1 52332U 22045B   24059.89041115  .00003862  00000-0  26062-3 0  9995,2 52332  53.2156 290.2229 0001301  88.6024 271.5117 15.08841561103959,6917.876,95.437,540.641,538.841,0.0
52332.0,STARLINK-3831,PAYLOAD,2024-02-29 00:32:57,15.08847351,0.0001346,53.2159,289.6276,88.1908,271.9238,0.00034281,5.173e-05,0.0,0 STARLINK-3831,1 52332U 22045B   24060.02288893  .00005173  00000-0  34281-3 0  9997,2 52332  53.2159 289.6276 0001346  88.1908 271.9238 15.08847351103974,6917.858,95.437,540.654,538.792,0.0
52332.0,STARLINK-3831,PAYLOAD,2024-02-29 08:29:53,15.08841572,0.000139,53.2159,288.138,86.558,273.5571,0.00015692,2.21e-05,0.0,0 STARLINK-3831,1 52332U 22045B   24060.35409117  .00002210  00000-0  15692-3 0  9991,2 52332  53.2159 288.1380 0001390  86.5580 273.5571 15.08841572104025,6917.876,95.437,540.702,538.779,0.0
52332.0,STARLINK-3831,PAYLOAD,2024-02-29 21:12:58,15.08843663,0.0001474,53.215,285.761,84.9875,275.1286,0.0001205,1.63e-05,0.0,0 STARLINK-3831,1 52332U 22045B   24060.88401100  .00001630  00000-0  12050-3 0  9993,2 52332  53.2150 285.7610 0001474  84.9875 275.1286 15.08843663104100,6917.869,95.437,540.754,538.714,0.0
52332.0,STARLINK-3831,PAYLOAD,2024-03-01 08:20:40,15.08844548,0.0001496,53.2152,283.6789,86.1405,273.9758,0.00012957,1.775e-05,0.0,0 STARLINK-3831,1 52332U 22045B   24061.34769155  .00001775  00000-0  12957-3 0  9998,2 52332  53.2152 283.6789 0001496  86.1405 273.9758 15.08844548104173,6917.866,95.437,540.766,538.697,0.0
52332.0,STARLINK-3831,PAYLOAD,2024-03-01 21:03:45,15.08833357,0.0001441,53.2163,281.2982,98.4374,261.6781,0.0004319,6.591e-05,0.0,0 STARLINK-3831,1 52332U 22045B   24061.87761546  .00006591  00000-0  43190-3 0  9996,2 52332  53.2163 281.2982 0001441  98.4374 261.6781 15.08833357104250,6917.901,95.438,540.763,538.769,0.0
52332.0,STARLINK-3831,PAYLOAD,2024-03-02 20:54:32,15.08845556,0.0001434,53.2163,276.8363,99.4977,260.6177,0.00014099,1.957e-05,0.0,0 STARLINK-3831,1 52332U 22045B   24062.87120730  .00001957  00000-0  14099-3 0  9998,2 52332  53.2163 276.8363 0001434  99.4977 260.6177 15.08845556104404,6917.863,95.437,540.72,538.736,0.0
52332.0,STARLINK-3831,PAYLOAD,2024-03-03 00:05:18,15.08846348,0.0001434,53.2163,276.2414,99.9712,260.1442,0.00014462,2.015e-05,0.0,0 STARLINK-3831,1 52332U 22045B   24063.00368645  .00002015  00000-0  14462-3 0  9993,2 52332  53.2163 276.2414 0001434  99.9712 260.1442 15.08846348104429,6917.861,95.437,540.718,538.734,0.0
52332.0,STARLINK-3831,PAYLOAD,2024-03-03 20:45:19,15.088419,0.000137,53.2166,272.3737,94.203,265.9119,6.8619e-05,8.04e-06,0.0,0 STARLINK-3831,1 52332U 22045B   24063.86481067  .00000804  00000-0  68619-4 0  9999,2 52332  53.2166 272.3737 0001370  94.2030 265.9119 15.08841900104554,6917.875,95.437,540.687,538.792,0.0
52332.0,STARLINK-3831,PAYLOAD,2024-03-03 23:56:05,15.0883995,0.0001381,53.2167,271.7789,95.9645,264.1504,4.2888e-05,3.95e-06,0.0,0 STARLINK-3831,1 52332U 22045B   24063.99729109  .00000395  00000-0  42888-4 0  9990,2 52332  53.2167 271.7789 0001381  95.9645 264.1504 15.08839950104570,6917.881,95.438,540.701,538.79,0.0
52332.0,STARLINK-3831,PAYLOAD,2024-03-04 06:17:37,15.08847283,0.0001327,53.2169,270.5939,96.1365,263.9778,0.00011385,1.525e-05,0.0,0 STARLINK-3831,1 52332U 22045B   24064.26224453  .00001525  00000-0  11385-3 0  9996,2 52332  53.2169 270.5939 0001327  96.1365 263.9778 15.08847283104611,6917.858,95.437,540.641,538.805,0.0
52332.0,STARLINK-3831,PAYLOAD,2024-03-04 20:36:06,15.08842416,0.0001284,53.2174,267.9197,93.7028,266.4111,6.344e-05,7.22e-06,0.0,0 STARLINK-3831,1 52332U 22045B   24064.85840862  .00000722  00000-0  63440-4 0  9997,2 52332  53.2174 267.9197 0001284  93.7028 266.4111 15.08842416104706,6917.873,95.437,540.626,538.85,0.0
52332.0,STARLINK-3831,PAYLOAD,2024-03-05 14:05:21,15.08836309,0.0001301,53.2167,264.6493,92.2822,267.8319,0.0001024,1.342e-05,0.0,0 STARLINK-3831,1 52332U 22045B   24065.58705168  .00001342  00000-0  10240-3 0  9995,2 52332  53.2167 264.6493 0001301  92.2822 267.8319 15.08836309104818,6917.892,95.438,540.657,538.857,0.0
52332.0,STARLINK-3831,PAYLOAD,2024-03-05 20:26:54,15.08829841,0.0001337,53.217,263.4591,91.79,268.3246,3.5122e-05,2.71e-06,0.0,0 STARLINK-3831,1 52332U 22045B   24065.85201791  .00000271  00000-0  35122-4 0  9995,2 52332  53.2170 263.4591 0001337  91.7900 268.3246 15.08829841104850,6917.911,95.438,540.701,538.852,0.0
52332.0,STARLINK-3831,PAYLOAD,2024-03-05 23:37:40,15.08833014,0.0001361,53.2165,262.8636,88.794,271.3209,2.5251e-05,1.14e-06,0.0,0 STARLINK-3831,1 52332U 22045B   24065.98449708  .00000114  00000-0  25251-4 0  9999,2 52332  53.2165 262.8636 0001361  88.7940 271.3209 15.08833014104876,6917.902,95.438,540.708,538.825,0.0
52332.0,STARLINK-3831,PAYLOAD,2024-03-06 20:17:41,15.08837926,0.0001296,53.2168,258.9978,87.2139,272.9001,2.8419e-05,1.64e-06,0.0,0 STARLINK-3831,1 52332U 22045B   24066.84561674  .00000164  00000-0  28419-4 0  9996,2 52332  53.2168 258.9978 0001296  87.2139 272.9001 15.08837926105004,6917.887,95.438,540.648,538.855,0.0
52332.0,STARLINK-3831,PAYLOAD,2024-03-07 05:50:00,15.0882912,0.0001355,53.2166,257.2134,92.7089,267.4059,0.00029263,4.371e-05,0.0,0 STARLINK-3831,1 52332U 22045B   24067.24305906  .00004371  00000-0  29263-3 0  9996,2 52332  53.2166 257.2134 0001355  92.7089 267.4059 15.08829120105064,6917.914,95.438,540.716,538.841,0.0
52332.0,STARLINK-3831,PAYLOAD,2024-03-08 05:40:46,15.08843777,0.0001332,53.2168,252.7532,83.4029,276.7115,0.00017141,2.441e-05,0.0,0 STARLINK-3831,1 52332U 22045B   24068.23665361  .00002441  00000-0  17141-3 0  9998,2 52332  53.2168 252.7532 0001332  83.4029 276.7115 15.08843777105211,6917.869,95.437,540.655,538.812,0.0
52332.0,STARLINK-3831,PAYLOAD,2024-03-08 12:02:20,15.08834068,0.0001308,53.2176,251.5616,92.3936,267.7205,8.0653e-05,9.96e-06,0.0,0 STARLINK-3831,1 52332U 22045B   24068.50162225  .00000996  00000-0  80653-4 0  9991,2 52332  53.2176 251.5616 0001308  92.3936 267.7205 15.08834068105256,6917.899,95.438,540.668,538.859,0.0
52332.0,STARLINK-3831,PAYLOAD,2024-03-08 18:23:53,15.08824707,8.48e-05,53.2184,250.3718,101.3332,258.7756,-6.2087e-05,-1.275e-05,0.0,0 STARLINK-3831,1 52332U 22045B   24068.76659273 -.00001275  00000-0 -62087-4 0  9997,2 52332  53.2184 250.3718 0000848 101.3332 258.7756 15.08824707105298,6917.927,95.439,540.379,539.205,0.0
52332.0,STARLINK-3831,PAYLOAD,2024-03-09 05:31:35,15.08832317,8.01e-05,53.2181,248.2899,91.8487,268.2597,5.5188e-05,5.91e-06,0.0,0 STARLINK-3831,1 52332U 22045B   24069.23026818  .00000591  00000-0  55188-4 0  9995,2 52332  53.2181 248.2899 0000801  91.8487 268.2597 15.08832317105367,6917.904,95.438,540.323,539.215,0.0
52332.0,STARLINK-3831,PAYLOAD,2024-03-09 21:25:27,15.0881034,0.0001025,53.2178,245.3161,122.1275,237.9817,0.00027881,4.149e-05,0.0,0 STARLINK-3831,1 52332U 22045B   24069.89268022  .00004149  00000-0  27881-3 0  9993,2 52332  53.2178 245.3161 0001025 122.1275 237.9817 15.08810340105466,6917.971,95.439,540.545,539.127,0.0
52332.0,STARLINK-3831,PAYLOAD,2024-03-10 18:05:28,15.08828832,2.31e-05,53.2127,241.4494,1.5879,358.5114,2.1992e-05,6.3e-07,0.0,0 STARLINK-3831,1 52332U 22045B   24070.75379691  .00000063  00000-0  21992-4 0  9994,2 52332  53.2127 241.4494 0000231   1.5879 358.5114 15.08828832105593,6917.915,95.438,539.939,539.62,0.0
52332.0,STARLINK-3831,PAYLOAD,2024-03-11 17:56:13,15.088483,0.0001195,53.2172,236.9908,84.9558,275.157,0.00013974,1.937e-05,0.0,0 STARLINK-3831,1 52332U 22045B   24071.74738213  .00001937  00000-0  13974-3 0  9994,2 52332  53.2172 236.9908 0001195  84.9558 275.1570 15.08848300105740,6917.855,95.437,540.547,538.893,0.0
52332.0,STARLINK-3831,PAYLOAD,2024-03-12 11:25:28,15.08843108,0.0001364,53.2171,233.7202,87.8484,272.2664,7.0892e-05,8.41e-06,0.0,0 STARLINK-3831,1 52332U 22045B   24072.47602555  .00000841  00000-0  70892-4 0  9990,2 52332  53.2171 233.7202 0001364  87.8484 272.2664 15.08843108105854,6917.871,95.437,540.679,538.792,0.0
52332.0,STARLINK-3831,PAYLOAD,2024-03-13 03:19:19,15.08856644,0.0001066,53.2175,230.746,74.5022,285.6088,-0.00011681,-2.147e-05,0.0,0 STARLINK-3831,1 52332U 22045B   24073.13841762 -.00002147  00000-0 -11681-3 0  9992,2 52332  53.2175 230.7460 0001066  74.5022 285.6088 15.08856644105959,6917.83,95.437,540.432,538.957,0.0
52332.0,STARLINK-3831,PAYLOAD,2024-03-13 19:13:11,15.08847344,0.0001884,53.2179,227.7731,86.3518,273.769,-0.00011593,-2.133e-05,0.0,0 STARLINK-3831,1 52332U 22045B   24073.80082719 -.00002133  00000-0 -11593-3 0  9992,2 52332  53.2179 227.7731 0001884  86.3518 273.7690 15.08847344106055,6917.858,95.437,541.026,538.42,0.0
52332.0,STARLINK-3831,PAYLOAD,2024-03-14 03:10:06,15.08852061,0.0002106,53.2187,226.2865,87.1168,273.0065,-3.5408e-05,-8.52e-06,0.0,0 STARLINK-3831,1 52332U 22045B   24074.13202076 -.00000852  00000-0 -35408-4 0  9997,2 52332  53.2187 226.2865 0002106  87.1168 273.0065 15.08852061106101,6917.844,95.437,541.165,538.252,0.0
52332.0,STARLINK-3831,PAYLOAD,2024-03-14 19:03:58,15.0883775,0.0001959,53.2159,223.3109,80.4034,279.7179,3.4405e-05,2.59e-06,0.0,0 STARLINK-3831,1 52332U 22045B   24074.79442868  .00000259  00000-0  34405-4 0  9999,2 52332  53.2159 223.3109 0001959  80.4034 279.7179 15.08837750106200,6917.887,95.438,541.107,538.397,0.0
